COMMENT,ORIGINATOR,NORAD_CAT_ID,OBJECT_NAME,OBJECT_TYPE,CLASSIFICATION_TYPE,INTLDES,EPOCH,EPOCH_MICROSECONDS,MEAN_MOTION,ECCENTRICITY,INCLINATION,RA_OF_ASC_NODE,ARG_OF_PERICENTER,MEAN_ANOMALY,EPHEMERIS_TYPE,ELEMENT_SET_NO,REV_AT_EPOCH,BSTAR,MEAN_MOTION_DOT,MEAN_MOTION_DDOT,FILE,TLE_LINE0,TLE_LINE1,TLE_LINE2,OBJECT_ID,OBJECT_NUMBER,SEMIMAJOR_AXIS,PERIOD,APOGEE,PERIGEE,DECAYED,date
GENERATED VIA SPACETRACK.ORG API,18 SPCS,52180,SPACEBEE-134,PAYLOAD,U,22033Z,2023/1/12 4:17,912512,15.29359483,0.0008187,97.364,95.497,8.1923,351.9449,0,999,4349,0.0013497,0.00038547,0,3742227,0 SPACEBEE-134,1 52180U 22033Z   23012.17884158  .00038547  00000-0  13497-2 0  9999,2 52180  97.3640  95.4970 0008187   8.1923 351.9449 15.29359483 43492,2022-033Z,52180,6855.863,94.157,483.341,472.115,1,2023/1/24
GENERATED VIA SPACETRACK.ORG API,18 SPCS,52180,SPACEBEE-134,PAYLOAD,U,22033Z,2023/1/13 0:42,169504,15.29424188,0.0008135,97.3638,96.3391,5.7346,354.3986,0,999,4360,0.0013301,0.00038058,0,3742120,0 SPACEBEE-134,1 52180U 22033Z   23013.02940011  .00038058  00000-0  13301-2 0  9996,2 52180  97.3638  96.3391 0008135   5.7346 354.3986 15.29424188 43602,2022-033Z,52180,6855.669,94.153,483.112,471.957,1,2023/1/25
GENERATED VIA SPACETRACK.ORG API,18 SPCS,52180,SPACEBEE-134,PAYLOAD,U,22033Z,2023/1/13 11:41,378848,15.29463059,0.00081,97.3639,96.7926,4.3544,355.7765,0,999,4369,0.0013755,0.00039414,0,3743417,0 SPACEBEE-134,1 52180U 22033Z   23013.48737707  .00039414  00000-0  13755-2 0  9992,2 52180  97.3639  96.7926 0008100   4.3544 355.7765 15.29463059 43697,2022-033Z,52180,6855.553,94.151,482.971,471.865,1,2023/1/26
GENERATED VIA SPACETRACK.ORG API,18 SPCS,52180,SPACEBEE-134,PAYLOAD,U,22033Z,2023/1/14 4:58,487904,15.29532404,0.0008072,97.3637,97.5054,1.7045,358.4221,0,999,4378,0.0017098,0.00049178,0,3744426,0 SPACEBEE-134,1 52180U 22033Z   23014.20703111  .00049178  00000-0  17098-2 0  9997,2 52180  97.3637  97.5054 0008072   1.7045 358.4221 15.29532404 43789,2022-033Z,52180,6855.346,94.146,482.745,471.677,1,2023/1/27
GENERATED VIA SPACETRACK.ORG API,18 SPCS,52180,SPACEBEE-134,PAYLOAD,U,22033Z,2023/1/15 4:31,595360,15.29624944,0.0008031,97.3638,98.4774,357.4064,2.7133,0,999,4395,0.001917,0.00055348,0,3747091,0 SPACEBEE-134,1 52180U 22033Z   23015.18832865  .00055348  00000-0  19170-2 0  9993,2 52180  97.3638  98.4774 0008031 357.4064   2.7133 15.29624944 43957,2022-033Z,52180,6855.07,94.141,482.44,471.429,1,2023/1/28
GENERATED VIA SPACETRACK.ORG API,18 SPCS,52180,SPACEBEE-134,PAYLOAD,U,22033Z,2023/1/15 18:38,489088,15.29678138,0.0008013,97.3638,99.0608,355.2484,4.8679,0,999,4402,0.0016272,0.00046994,0,3747857,0 SPACEBEE-134,1 52180U 22033Z   23015.77707742  .00046994  00000-0  16272-2 0  9990,2 52180  97.3638  99.0608 0008013 355.2484   4.8679 15.29678138 44023,2022-033Z,52180,6854.911,94.137,482.269,471.283,1,2023/1/29
GENERATED VIA SPACETRACK.ORG API,18 SPCS,52180,SPACEBEE-134,PAYLOAD,U,22033Z,2023/1/15 18:38,489088,15.29678138,0.0008013,97.3638,99.0608,355.2484,4.8679,0,999,4404,0.0016272,0.00046994,0,3748322,0 SPACEBEE-134,1 52180U 22033Z   23015.77707742  .00046994  00000-0  16272-2 0  9990,2 52180  97.3638  99.0608 0008013 355.2484   4.8679 15.29678138 44045,2022-033Z,52180,6854.911,94.137,482.269,471.283,1,2023/1/30
GENERATED VIA SPACETRACK.ORG API,18 SPCS,52180,SPACEBEE-134,PAYLOAD,U,22033Z,2023/1/16 4:04,41888,15.29735264,0.000803,97.3637,99.4496,353.479,6.6344,0,999,4408,0.002091,0.00060626,0,3748718,0 SPACEBEE-134,1 52180U 22033Z   23016.16956067  .00060626  00000-0  20910-2 0  9992,2 52180  97.3637  99.4496 0008030 353.4790   6.6344 15.29735264 44089,2022-033Z,52180,6854.74,94.134,482.109,471.101,1,2023/1/31
GENERATED VIA SPACETRACK.ORG API,18 SPCS,52180,SPACEBEE-134,PAYLOAD,U,22033Z,2023/1/16 11:55,60448,15.29774288,0.0007997,97.3639,99.7737,352.4955,7.6164,0,999,4415,0.0020785,0.00060332,0,3749606,0 SPACEBEE-134,1 52180U 22033Z   23016.49662107  .00060332  00000-0  20785-2 0  9991,2 52180  97.3639  99.7737 0007997 352.4955   7.6164 15.29774288 44153,2022-033Z,52180,6854.623,94.132,481.97,471.007,1,2023/2/1
GENERATED VIA SPACETRACK.ORG API,18 SPCS,52180,SPACEBEE-134,PAYLOAD,U,22033Z,2023/1/16 16:37,792096,15.29783559,0.0008021,97.3639,99.9685,352.1255,7.9858,0,999,4416,0.0017202,0.00049865,0,3750839,0 SPACEBEE-134,1 52180U 22033Z   23016.69285639  .00049865  00000-0  17202-2 0  9992,2 52180  97.3639  99.9685 0008021 352.1255   7.9858 15.29783559 44161,2022-033Z,52180,6854.596,94.131,481.959,470.963,1,2023/2/2
GENERATED VIA SPACETRACK.ORG API,18 SPCS,52180,SPACEBEE-134,PAYLOAD,U,22033Z,2023/1/16 16:37,792096,15.29783559,0.0008021,97.3639,99.9685,352.1255,7.9858,0,999,4418,0.0017202,0.00049865,0,3750956,0 SPACEBEE-134,1 52180U 22033Z   23016.69285639  .00049865  00000-0  17202-2 0  9992,2 52180  97.3639  99.9685 0008021 352.1255   7.9858 15.29783559 44183,2022-033Z,52180,6854.596,94.131,481.959,470.963,1,2023/2/3
GENERATED VIA SPACETRACK.ORG API,18 SPCS,52180,SPACEBEE-134,PAYLOAD,U,22033Z,2023/1/17 11:27,275296,15.29847664,0.0007933,97.3641,100.7462,349.241,10.8659,0,999,4428,0.0013738,0.00039833,0,3753013,0 SPACEBEE-134,1 52180U 22033Z   23017.47776939  .00039833  00000-0  13738-2 0  9991,2 52180  97.3641 100.7462 0007933 349.2410  10.8659 15.29847664 44282,2022-033Z,52180,6854.404,94.127,481.707,470.832,1,2023/2/4
GENERATED VIA SPACETRACK.ORG API,18 SPCS,52180,SPACEBEE-134,PAYLOAD,U,22033Z,2023/1/17 11:27,275296,15.29847664,0.0007933,97.3641,100.7462,349.241,10.8659,0,999,4430,0.0013738,0.00039833,0,3753023,0 SPACEBEE-134,1 52180U 22033Z   23017.47776939  .00039833  00000-0  13738-2 0  9991,2 52180  97.3641 100.7462 0007933 349.2410  10.8659 15.29847664 44305,2022-033Z,52180,6854.404,94.127,481.707,470.832,1,2023/2/5
GENERATED VIA SPACETRACK.ORG API,18 SPCS,52180,SPACEBEE-134,PAYLOAD,U,22033Z,2023/1/18 11:00,893664,15.29936926,0.0007887,97.3641,101.7186,345.4742,14.627,0,999,4445,0.0017738,0.00051675,0,3753951,0 SPACEBEE-134,1 52180U 22033Z   23018.45886451  .00051675  00000-0  17738-2 0  9993,2 52180  97.3641 101.7186 0007887 345.4742  14.6270 15.29936926 44450,2022-033Z,52180,6854.138,94.122,481.409,470.597,1,2023/2/6
GENERATED VIA SPACETRACK.ORG API,18 SPCS,52180,SPACEBEE-134,PAYLOAD,U,22033Z,2023/1/18 18:51,336128,15.2996613,0.0007889,97.3641,102.0428,344.1522,15.9471,0,999,4448,0.0016951,0.00049408,0,3754229,0 SPACEBEE-134,1 52180U 22033Z   23018.78588352  .00049408  00000-0  16951-2 0  9995,2 52180  97.3641 102.0428 0007889 344.1522  15.9471 15.29966130 44487,2022-033Z,52180,6854.05,94.12,481.323,470.508,1,2023/2/7
GENERATED VIA SPACETRACK.ORG API,18 SPCS,52180,SPACEBEE-134,PAYLOAD,U,22033Z,2023/1/18 18:51,336128,15.2996613,0.0007889,97.3641,102.0428,344.1522,15.9471,0,999,4450,0.0016951,0.00049408,0,3754254,0 SPACEBEE-134,1 52180U 22033Z   23018.78588352  .00049408  00000-0  16951-2 0  9995,2 52180  97.3641 102.0428 0007889 344.1522  15.9471 15.29966130 44500,2022-033Z,52180,6854.05,94.12,481.323,470.508,1,2023/2/8
GENERATED VIA SPACETRACK.ORG API,18 SPCS,52180,SPACEBEE-134,PAYLOAD,U,22033Z,2023/1/19 4:16,863392,15.29997848,0.00079,97.3639,102.4315,342.4002,17.6964,0,999,4456,0.0014118,0.00041134,0,3754973,0 SPACEBEE-134,1 52180U 22033Z   23019.17829703  .00041134  00000-0  14118-2 0  9998,2 52180  97.3639 102.4315 0007900 342.4002  17.6964 15.29997848 44566,2022-033Z,52180,6853.956,94.118,481.235,470.406,1,2023/2/9
GENERATED VIA SPACETRACK.ORG API,18 SPCS,52180,SPACEBEE-134,PAYLOAD,U,22033Z,2023/1/19 4:16,863392,15.29997848,0.00079,97.3639,102.4315,342.4002,17.6964,0,999,4454,0.0014118,0.00041134,0,3755256,0 SPACEBEE-134,1 52180U 22033Z   23019.17829703  .00041134  00000-0  14118-2 0  9998,2 52180  97.3639 102.4315 0007900 342.4002  17.6964 15.29997848 44544,2022-033Z,52180,6853.956,94.118,481.235,470.406,1,2023/2/10
GENERATED VIA SPACETRACK.ORG API,18 SPCS,52180,SPACEBEE-134,PAYLOAD,U,22033Z,2023/1/19 23:06,594624,15.30073757,0.000786,97.3638,103.2093,339.8358,20.2571,0,999,4466,0.0016308,0.00047678,0,3755575,0 SPACEBEE-134,1 52180U 22033Z   23019.96309716  .00047678  00000-0  16308-2 0  9994,2 52180  97.3638 103.2093 0007860 339.8358  20.2571 15.30073757 44667,2022-033Z,52180,6853.729,94.113,480.981,470.207,1,2023/2/11
GENERATED VIA SPACETRACK.ORG API,18 SPCS,52180,SPACEBEE-134,PAYLOAD,U,22033Z,2023/1/20 11:40,370816,15.30116638,0.0007825,97.3638,103.7279,338.1806,21.91,0,999,4476,0.0014211,0.00041558,0,3755973,0 SPACEBEE-134,1 52180U 22033Z   23020.48627744  .00041558  00000-0  14211-2 0  9999,2 52180  97.3638 103.7279 0007825 338.1806  21.9100 15.30116638 44762,2022-033Z,52180,6853.601,94.11,480.829,470.103,1,2023/2/12
GENERATED VIA SPACETRACK.ORG API,18 SPCS,52180,SPACEBEE-134,PAYLOAD,U,22033Z,2023/1/21 4:56,962848,15.3018402,0.000778,97.3637,104.4412,335.5436,24.5434,0,999,4485,0.0016076,0.00047154,0,3756788,0 SPACEBEE-134,1 52180U 22033Z   23021.20562457  .00047154  00000-0  16076-2 0  9998,2 52180  97.3637 104.4412 0007780 335.5436  24.5434 15.30184020 44857,2022-033Z,52180,6853.4,94.106,480.597,469.933,1,2023/2/13
GENERATED VIA SPACETRACK.ORG API,18 SPCS,52180,SPACEBEE-134,PAYLOAD,U,22033Z,2023/1/23 0:52,701408,15.30353773,0.0007734,97.3629,106.2561,328.634,31.4438,0,999,4513,0.0015596,0.00045977,0,3758594,0 SPACEBEE-134,1 52180U 22033Z   23023.03654747  .00045977  00000-0  15596-2 0  9992,2 52180  97.3629 106.2561 0007734 328.6340  31.4438 15.30353773 45135,2022-033Z,52180,6852.893,94.096,480.058,469.458,1,2023/2/14
GENERATED VIA SPACETRACK.ORG API,18 SPCS,52180,SPACEBEE-134,PAYLOAD,U,22033Z,2023/1/24 5:07,291328,15.30459758,0.0007686,97.3624,107.4231,324.4353,35.6375,0,999,4531,0.0015497,0.00045833,0,3759668,0 SPACEBEE-134,1 52180U 22033Z   23024.21346402  .00045833  00000-0  15497-2 0  9990,2 52180  97.3624 107.4231 0007686 324.4353  35.6375 15.30459758 45317,2022-033Z,52180,6852.577,94.089,479.708,469.175,1,2023/2/15
